NORAD_CAT_ID,OBJECT_NAME,OBJECT_TYPE,EPOCH,MEAN_MOTION,ECCENTRICITY,INCLINATION,RA_OF_ASC_NODE,ARG_OF_PERICENTER,MEAN_ANOMALY,BSTAR,MEAN_MOTION_DOT,MEAN_MOTION_DDOT,TLE_LINE0,TLE_LINE1,TLE_LINE2,SEMIMAJOR_AXIS,PERIOD,APOGEE,PERIGEE,DECAYED
53414.0,STARLINK-4304,PAYLOAD,2023-05-25 18:57:47,15.08843649,0.0001935,53.2149,8.148,93.8866,266.2348,0.00012111,1.64e-05,0.0,0 STARLINK-4304,1 53414U 22097AC  23145.79012808  .00001640  00000-0  12111-3 0  9997,2 53414  53.2149   8.1480 0001935  93.8866 266.2348 15.08843649 44346,6917.869,95.437,541.073,538.396,0.0
53414.0,STARLINK-4304,PAYLOAD,2023-05-25 22:08:33,15.08846147,0.0001928,53.2149,7.5533,93.1338,266.9875,0.00015497,2.179e-05,0.0,0 STARLINK-4304,1 53414U 22097AC  23145.92260665  .00002179  00000-0  15497-3 0  9996,2 53414  53.2149   7.5533 0001928  93.1338 266.9875 15.08846147 44840,6917.862,95.437,541.06,538.393,0.0
53414.0,STARLINK-4304,PAYLOAD,2023-05-26 09:16:15,15.08829482,0.0001834,53.2148,5.4717,93.6096,266.5106,-9.9937e-05,-1.878e-05,0.0,0 STARLINK-4304,1 53414U 22097AC  23146.38629418 -.00001878  00000-0 -99937-4 0  9991,2 53414  53.2148   5.4717 0001834  93.6096 266.5106 15.08829482 44433,6917.913,95.438,541.046,538.509,0.0
53414.0,STARLINK-4304,PAYLOAD,2023-05-26 14:02:25,15.08834197,0.0001874,53.2146,4.5796,89.9364,270.1842,3.2243e-05,2.25e-06,0.0,0 STARLINK-4304,1 53414U 22097AC  23146.58501354  .00000225  00000-0  32243-4 0  9991,2 53414  53.2146   4.5796 0001874  89.9364 270.1842 15.08834197 44941,6917.898,95.438,541.06,538.467,0.0
53414.0,STARLINK-4304,PAYLOAD,2023-05-26 18:48:34,15.08838334,0.0001836,53.2145,3.6873,93.1567,266.9635,3.0943e-05,2.04e-06,0.0,0 STARLINK-4304,1 53414U 22097AC  23146.78373021  .00000204  00000-0  30943-4 0  9993,2 53414  53.2145   3.6873 0001836  93.1567 266.9635 15.08838334 44496,6917.885,95.438,541.021,538.48,0.0
53414.0,STARLINK-4304,PAYLOAD,2023-05-26 21:59:20,15.08841409,0.000179,53.2144,3.0928,92.8119,267.3078,0.00011524,1.546e-05,0.0,0 STARLINK-4304,1 53414U 22097AC  23146.91620931  .00001546  00000-0  11524-3 0  9996,2 53414  53.2144   3.0928 0001790  92.8119 267.3078 15.08841409 44996,6917.876,95.437,540.979,538.503,0.0
53414.0,STARLINK-4304,PAYLOAD,2023-05-27 20:14:44,15.08841633,0.000175,53.2142,358.9296,87.3808,272.7384,0.00039426,5.992e-05,0.0,0 STARLINK-4304,1 53414U 22097AC  23147.84357312  .00005992  00000-0  39426-3 0  9999,2 53414  53.2142 358.9296 0001750  87.3808 272.7384 15.08841633 44656,6917.875,95.437,540.951,538.53,0.0
53414.0,STARLINK-4304,PAYLOAD,2023-05-27 21:50:07,15.08842969,0.0001762,53.2141,358.6322,86.7251,273.3942,0.00043609,6.66e-05,0.0,0 STARLINK-4304,1 53414U 22097AC  23147.90981304  .00006660  00000-0  43609-3 0  9991,2 53414  53.2141 358.6322 0001762  86.7251 273.3942 15.08842969 45145,6917.871,95.437,540.955,538.517,0.0
53414.0,STARLINK-4304,PAYLOAD,2023-05-27 23:25:30,15.08844917,0.0001778,53.2141,358.3349,86.1041,274.0155,0.00049148,7.544e-05,0.0,0 STARLINK-4304,1 53414U 22097AC  23147.97605271  .00007544  00000-0  49148-3 0  9990,2 53414  53.2141 358.3349 0001778  86.1041 274.0155 15.08844917 45159,6917.865,95.437,540.96,538.5,0.0
53414.0,STARLINK-4304,PAYLOAD,2023-05-28 20:05:31,15.0885321,0.0001737,53.2144,354.4677,90.2081,269.911,0.00047413,7.269e-05,0.0,0 STARLINK-4304,1 53414U 22097AC  23148.83716906  .00007269  00000-0  47413-3 0  9991,2 53414  53.2144 354.4677 0001737  90.2081 269.9110 15.08853210 45282,6917.84,95.437,540.907,538.503,0.0
53414.0,STARLINK-4304,PAYLOAD,2023-05-28 23:16:17,15.08855643,0.000175,53.2141,353.8738,86.8262,273.2931,0.00048103,7.379e-05,0.0,0 STARLINK-4304,1 53414U 22097AC  23148.96964775  .00007379  00000-0  48103-3 0  9993,2 53414  53.2141 353.8738 0001750  86.8262 273.2931 15.08855643 44827,6917.833,95.437,540.908,538.487,0.0
53414.0,STARLINK-4304,PAYLOAD,2023-05-29 16:45:32,15.08846274,0.0002148,53.2149,350.6011,110.067,250.0553,0.00015614,2.198e-05,0.0,0 STARLINK-4304,1 53414U 22097AC  23149.69828869  .00002198  00000-0  15614-3 0  9992,2 53414  53.2149 350.6011 0002148 110.0670 250.0553 15.08846274 44934,6917.861,95.437,541.212,538.24,0.0
53414.0,STARLINK-4304,PAYLOAD,2023-05-29 19:56:18,15.08844796,0.0001725,53.2149,350.0056,95.8281,264.2907,0.0001551,2.182e-05,0.0,0 STARLINK-4304,1 53414U 22097AC  23149.83076962  .00002182  00000-0  15510-3 0  9995,2 53414  53.2149 350.0056 0001725  95.8281 264.2907 15.08844796 45438,6917.866,95.437,540.924,538.537,0.0
53414.0,STARLINK-4304,PAYLOAD,2023-05-30 13:25:33,15.08838904,0.0001664,53.2147,346.7352,95.9924,264.1258,5.8725e-05,6.47e-06,0.0,0 STARLINK-4304,1 53414U 22097AC  23150.55941217  .00000647  00000-0  58725-4 0  9990,2 53414  53.2147 346.7352 0001664  95.9924 264.1258 15.08838904 45548,6917.884,95.438,540.9,538.598,0.0
53414.0,STARLINK-4304,PAYLOAD,2023-05-30 16:36:19,15.08841003,0.0001679,53.2145,346.1407,95.8385,264.2799,6.3221e-05,7.18e-06,0.0,0 STARLINK-4304,1 53414U 22097AC  23150.69189179  .00000718  00000-0  63221-4 0  9992,2 53414  53.2145 346.1407 0001679  95.8385 264.2799 15.08841003 45081,6917.877,95.437,540.904,538.581,0.0
53414.0,STARLINK-4304,PAYLOAD,2023-05-30 19:47:05,15.08842931,0.000157,53.2135,345.5491,89.373,270.7442,0.00013673,1.889e-05,0.0,0 STARLINK-4304,1 53414U 22097AC  23150.82437146  .00001889  00000-0  13673-3 0  9992,2 53414  53.2135 345.5491 0001570  89.3730 270.7442 15.08842931 45581,6917.871,95.437,540.823,538.65,0.0
53414.0,STARLINK-4304,PAYLOAD,2023-05-31 13:16:20,15.08844205,0.0001597,53.2137,342.2762,89.8356,270.2819,0.00019969,2.892e-05,0.0,0 STARLINK-4304,1 53414U 22097AC  23151.55301112  .00002892  00000-0  19969-3 0  9995,2 53414  53.2137 342.2762 0001597  89.8356 270.2819 15.08844205 45697,6917.868,95.437,540.837,538.628,0.0
53414.0,STARLINK-4304,PAYLOAD,2023-05-31 18:02:29,15.0884706,0.0001583,53.214,341.3837,90.1578,269.9595,0.00023654,3.479e-05,0.0,0 STARLINK-4304,1 53414U 22097AC  23151.75172956  .00003479  00000-0  23654-3 0  9997,2 53414  53.2140 341.3837 0001583  90.1578 269.9595 15.08847060 45249,6917.859,95.437,540.819,538.629,0.0
53414.0,STARLINK-4304,PAYLOAD,2023-05-31 19:37:52,15.08850869,0.0001505,53.2139,341.087,89.1126,271.0039,0.00030131,4.512e-05,0.0,0 STARLINK-4304,1 53414U 22097AC  23151.81796788  .00004512  00000-0  30131-3 0  9996,2 53414  53.2139 341.0870 0001505  89.1126 271.0039 15.08850869 45734,6917.847,95.437,540.753,538.671,0.0
53414.0,STARLINK-4304,PAYLOAD,2023-06-01 05:10:11,15.0884448,0.0001448,53.2139,339.301,88.1023,272.0135,0.00014323,1.993e-05,0.0,0 STARLINK-4304,1 53414U 22097AC  23152.21540839  .00001993  00000-0  14323-3 0  9990,2 53414  53.2139 339.3010 0001448  88.1023 272.0135 15.08844480 45797,6917.867,95.437,540.733,538.73,0.0
53414.0,STARLINK-4304,PAYLOAD,2023-06-01 21:04:02,15.08841197,0.0001632,53.2128,336.3301,95.3107,264.8071,9.8376e-05,1.278e-05,0.0,0 STARLINK-4304,1 53414U 22097AC  23152.87781130  .00001278  00000-0  98376-4 0  9990,2 53414  53.2128 336.3301 0001632  95.3107 264.8071 15.08841197 45412,6917.877,95.437,540.871,538.613,0.0
53414.0,STARLINK-4304,PAYLOAD,2023-06-02 17:44:04,15.088341,0.0001442,53.2139,332.4631,93.1828,266.9329,-4.6651e-05,-1.03e-05,0.0,0 STARLINK-4304,1 53414U 22097AC  23153.73893656 -.00001030  00000-0 -46651-4 0  9990,2 53414  53.2139 332.4631 0001442  93.1828 266.9329 15.08834100 45541,6917.898,95.438,540.761,538.766,0.0
53414.0,STARLINK-4304,PAYLOAD,2023-06-02 19:19:27,15.08835687,0.0001432,53.214,332.1657,91.4973,268.6183,-2.0015e-05,-6.06e-06,0.0,0 STARLINK-4304,1 53414U 22097AC  23153.80517609 -.00000606  00000-0 -20015-4 0  9993,2 53414  53.2140 332.1657 0001432  91.4973 268.6183 15.08835687 46032,6917.894,95.438,540.749,538.768,0.0
53414.0,STARLINK-4304,PAYLOAD,2023-06-03 04:51:46,15.08837728,0.0001415,53.2144,330.3818,90.4377,269.6777,6.0878e-05,6.81e-06,0.0,0 STARLINK-4304,1 53414U 22097AC  23154.20261683  .00000681  00000-0  60878-4 0  9998,2 53414  53.2144 330.3818 0001415  90.4377 269.6777 15.08837728 46097,6917.887,95.438,540.731,538.773,0.0
53414.0,STARLINK-4304,PAYLOAD,2023-06-03 20:45:37,15.08843195,0.0001326,53.2146,327.407,88.0454,272.069,0.00016155,2.284e-05,0.0,0 STARLINK-4304,1 53414U 22097AC  23154.86501556  .00002284  00000-0  16155-3 0  9995,2 53414  53.2146 327.4070 0001326  88.0454 272.0690 15.08843195 46194,6917.871,95.437,540.653,538.818,0.0
53414.0,STARLINK-4304,PAYLOAD,2023-06-04 04:42:33,15.08839113,0.0001317,53.2145,325.9183,84.0311,276.0831,7.124e-05,8.46e-06,0.0,0 STARLINK-4304,1 53414U 22097AC  23155.19621840  .00000846  00000-0  71240-4 0  9990,2 53414  53.2145 325.9183 0001317  84.0311 276.0831 15.08839113 45767,6917.883,95.438,540.659,538.837,0.0
53414.0,STARLINK-4304,PAYLOAD,2023-06-04 11:04:07,15.08804615,0.0001476,53.2147,324.7295,92.4127,267.7034,0.00090929,0.00014199,0.0,0 STARLINK-4304,1 53414U 22097AC  23155.46119332  .00014199  00000-0  90929-3 0  9998,2 53414  53.2147 324.7295 0001476  92.4127 267.7034 15.08804615 46283,6917.989,95.44,540.875,538.832,0.0
53414.0,STARLINK-4304,PAYLOAD,2023-06-04 17:25:38,15.08837817,0.0001471,53.2149,323.5426,78.0024,282.1133,0.00011392,1.525e-05,0.0,0 STARLINK-4304,1 53414U 22097AC  23155.72614164  .00001525  00000-0  11392-3 0  9996,2 53414  53.2149 323.5426 0001471  78.0024 282.1133 15.08837817 46325,6917.887,95.438,540.77,538.734,0.0
53414.0,STARLINK-4304,PAYLOAD,2023-06-05 10:54:52,15.08852808,0.000154,53.2159,320.2718,78.062,282.0545,-1.6284e-05,-5.47e-06,0.0,0 STARLINK-4304,1 53414U 22097AC  23156.45477546 -.00000547  00000-0 -16284-4 0  9999,2 53414  53.2159 320.2718 0001540  78.0620 282.0545 15.08852808 45954,6917.841,95.437,540.772,538.641,0.0
53414.0,STARLINK-4304,PAYLOAD,2023-06-05 18:51:48,15.08850498,0.0001065,53.2129,318.783,84.3208,275.7906,0.00017636,2.521e-05,0.0,0 STARLINK-4304,1 53414U 22097AC  23156.78597398  .00002521  00000-0  17636-3 0  9996,2 53414  53.2129 318.7830 0001065  84.3208 275.7906 15.08850498 46484,6917.848,95.437,540.45,538.977,0.0
